[
    {
        "Altitude(m)": 611967.1949809216,
        "Argument of Periapsis(deg)": 0.0,
        "Eccentricity": 0.0,
        "Inclination(deg)": 60.0,
        "Latitude(deg)": 59.14021022419198,
        "Longitude(deg)": 156.09222019884538,
        "Mean Anomaly(deg)": 98.18180000000002,
        "RAAN(deg)": 150.0,
        "Satellite Name": "Test1 666",
        "Satellite Number": 666,
        "Semi-Major Axis(m)": 6980739.136638005,
        "Time(s)": 0
    },
    {
        "Altitude(m)": 611934.3942548159,
        "Argument of Periapsis(deg)": 0.00010418945913296404,
        "Eccentricity": 0.0,
        "Inclination(deg)": 60.0,
        "Latitude(deg)": 58.98657049099145,
        "Longitude(deg)": 157.21546649539016,
        "Mean Anomaly(deg)": 98.80190614546183,
        "RAAN(deg)": 149.99957995086027,
        "Satellite Name": "Test1 666",
        "Satellite Number": 666,
        "Semi-Major Axis(m)": 6980739.136638005,
        "Time(s)": 10
    },
    {
        "Altitude(m)": 611899.2888889362,
        "Argument of Periapsis(deg)": 0.0002083789182659281,
        "Eccentricity": 0.0,
        "Inclination(deg)": 60.0,
        "Latitude(deg)": 58.82255264818704,
        "Longitude(deg)": 158.32804731640584,
        "Mean Anomaly(deg)": 99.42201229092365,
        "RAAN(deg)": 149.99915990172053,
        "Satellite Name": "Test1 666",
        "Satellite Number": 666,
        "Semi-Major Axis(m)": 6980739.136638005,
        "Time(s)": 20
    },
    {
        "Altitude(m)": 611861.899117906,
        "Argument of Periapsis(deg)": 0.00031256837739889213,
        "Eccentricity": 0.0,
        "Inclination(deg)": 60.0,
        "Latitude(deg)": 58.64831974734391,
        "Longitude(deg)": 159.42945087018916,
        "Mean Anomaly(deg)": 100.0421184363855,
        "RAAN(deg)": 149.99873985258077,
        "Satellite Name": "Test1 666",
        "Satellite Number": 666,
        "Semi-Major Axis(m)": 6980739.136638005,
        "Time(s)": 30
    },
    {
        "Altitude(m)": 611822.2465021856,
        "Argument of Periapsis(deg)": 0.0004167578365318562,
        "Eccentricity": 0.0,
        "Inclination(deg)": 60.0,
        "Latitude(deg)": 58.464041288924705,
        "Longitude(deg)": 160.51920611426698,
        "Mean Anomaly(deg)": 100.66222458184733,
        "RAAN(deg)": 149.99831980344103,
        "Satellite Name": "Test1 666",
        "Satellite Number": 666,
        "Semi-Major Axis(m)": 6980739.136638005,
        "Time(s)": 40
    },
    {
        "Altitude(m)": 611780.3539178534,
        "Argument of Periapsis(deg)": 0.0005209472956648203,
        "Eccentricity": 0.0,
        "Inclination(deg)": 60.0,
        "Latitude(deg)": 58.26989250576474,
        "Longitude(deg)": 161.59688197903202,
        "Mean Anomaly(deg)": 101.28233072730913,
        "RAAN(deg)": 149.9978997543013,
        "Satellite Name": "Test1 666",
        "Satellite Number": 666,
        "Semi-Major Axis(m)": 6980739.136638005,
        "Time(s)": 50
    },
    {
        "Altitude(m)": 611736.2455458117,
        "Argument of Periapsis(deg)": 0.0006251367547977843,
        "Eccentricity": 0.0,
        "Inclination(deg)": 60.0,
        "Latitude(deg)": 58.06605365300276,
        "Longitude(deg)": 162.66208781425183,
        "Mean Anomaly(deg)": 101.90243687277095,
        "RAAN(deg)": 149.99747970516157,
        "Satellite Name": "Test1 666",
        "Satellite Number": 666,
        "Semi-Major Axis(m)": 6980739.136638005,
        "Time(s)": 60
    },
    {
        "Altitude(m)": 611689.9468603247,
        "Argument of Periapsis(deg)": 0.0007293262139307483,
        "Eccentricity": 0.0,
        "Inclination(deg)": 60.0,
        "Latitude(deg)": 57.85270930985292,
        "Longitude(deg)": 163.7144735658074,
        "Mean Anomaly(deg)": 102.52254301823282,
        "RAAN(deg)": 149.9970596560218,
        "Satellite Name": "Test1 666",
        "Satellite Number": 666,
        "Semi-Major Axis(m)": 6980739.136638005,
        "Time(s)": 70
    },
    {
        "Altitude(m)": 611641.4846169591,
        "Argument of Periapsis(deg)": 0.0008335156730637124,
        "Eccentricity": 0.0,
        "Inclination(deg)": 60.0,
        "Latitude(deg)": 57.630047698061716,
        "Longitude(deg)": 164.7537281921744,
        "Mean Anomaly(deg)": 103.14264916369464,
        "RAAN(deg)": 149.99663960688207,
        "Satellite Name": "Test1 666",
        "Satellite Number": 666,
        "Semi-Major Axis(m)": 6980739.136638005,
        "Time(s)": 80
    },
    {
        "Altitude(m)": 611590.8868399162,
        "Argument of Periapsis(deg)": 0.0009377051321966765,
        "Eccentricity": 0.0,
        "Inclination(deg)": 60.0,
        "Latitude(deg)": 57.39826002131637,
        "Longitude(deg)": 165.7795793703262,
        "Mean Anomaly(deg)": 103.76275530915649,
        "RAAN(deg)": 149.99621955774234,
        "Satellite Name": "Test1 666",
        "Satellite Number": 666,
        "Semi-Major Axis(m)": 6980739.136638005,
        "Time(s)": 90
    },
    {
        "Altitude(m)": 611538.1828087444,
        "Argument of Periapsis(deg)": 0.0010418945913296407,
        "Eccentricity": 0.0,
        "Inclination(deg)": 60.0,
        "Latitude(deg)": 57.157539829293576,
        "Longitude(deg)": 166.79179300307206,
        "Mean Anomaly(deg)": 104.38286145461831,
        "RAAN(deg)": 149.9957995086026,
        "Satellite Name": "Test1 666",
        "Satellite Number": 666,
        "Semi-Major Axis(m)": 6980739.136638005,
        "Time(s)": 100
    },
    {
        "Altitude(m)": 611483.4030444418,
        "Argument of Periapsis(deg)": 0.0011460840504626045,
        "Eccentricity": 0.0,
        "Inclination(deg)": 60.0,
        "Latitude(deg)": 56.908082409450735,
        "Longitude(deg)": 167.79017104026008,
        "Mean Anomaly(deg)": 105.00296760008013,
        "RAAN(deg)": 149.99537945946284,
        "Satellite Name": "Test1 666",
        "Satellite Number": 666,
        "Semi-Major Axis(m)": 6980739.136638005,
        "Time(s)": 110
    },
    {
        "Altitude(m)": 611426.5792949973,
        "Argument of Periapsis(deg)": 0.0012502735095955685,
        "Eccentricity": 0.0,
        "Inclination(deg)": 60.0,
        "Latitude(deg)": 56.6500842090793,
        "Longitude(deg)": 168.7745506648291,
        "Mean Anomaly(deg)": 105.62307374554194,
        "RAAN(deg)": 149.9949594103231,
        "Satellite Name": "Test1 666",
        "Satellite Number": 666,
        "Semi-Major Axis(m)": 6980739.136638005,
        "Time(s)": 120
    },
    {
        "Altitude(m)": 611367.7445202926,
        "Argument of Periapsis(deg)": 0.0013544629687285324,
        "Eccentricity": 0.0,
        "Inclination(deg)": 60.0,
        "Latitude(deg)": 56.38374228959076,
        "Longitude(deg)": 169.744803355565,
        "Mean Anomaly(deg)": 106.2431798910038,
        "RAAN(deg)": 149.99453936118334,
        "Satellite Name": "Test1 666",
        "Satellite Number": 666,
        "Semi-Major Axis(m)": 6980739.136638005,
        "Time(s)": 130
    },
    {
        "Altitude(m)": 611306.9328764434,
        "Argument of Periapsis(deg)": 0.0014586524278614966,
        "Eccentricity": 0.0,
        "Inclination(deg)": 60.0,
        "Latitude(deg)": 56.109253814480525,
        "Longitude(deg)": 170.70083233755136,
        "Mean Anomaly(deg)": 106.86328603646564,
        "RAAN(deg)": 149.9941193120436,
        "Satellite Name": "Test1 666",
        "Satellite Number": 666,
        "Semi-Major Axis(m)": 6980739.136638005,
        "Time(s)": 140
    },
    {
        "Altitude(m)": 611244.1796995756,
        "Argument of Periapsis(deg)": 0.0015628418869944607,
        "Eccentricity": 0.0,
        "Inclination(deg)": 60.0,
        "Latitude(deg)": 55.82681557191544,
        "Longitude(deg)": 171.6425714687572,
        "Mean Anomaly(deg)": 107.48339218192744,
        "RAAN(deg)": 149.99369926290387,
        "Satellite Name": "Test1 666",
        "Satellite Number": 666,
        "Semi-Major Axis(m)": 6980739.136638005,
        "Time(s)": 150
    },
    {
        "Altitude(m)": 611179.521488991,
        "Argument of Periapsis(deg)": 0.0016670313461274247,
        "Eccentricity": 0.0,
        "Inclination(deg)": 60.0,
        "Latitude(deg)": 55.53662353244815,
        "Longitude(deg)": 172.56998407117186,
        "Mean Anomaly(deg)": 108.10349832738926,
        "RAAN(deg)": 149.99327921376414,
        "Satellite Name": "Test1 666",
        "Satellite Number": 666,
        "Semi-Major Axis(m)": 6980739.136638005,
        "Time(s)": 160
    },
    {
        "Altitude(m)": 611112.9958897921,
        "Argument of Periapsis(deg)": 0.0017712208052603888,
        "Eccentricity": 0.0,
        "Inclination(deg)": 60.0,
        "Latitude(deg)": 55.238872441953966,
        "Longitude(deg)": 173.4830602133124,
        "Mean Anomaly(deg)": 108.72360447285111,
        "RAAN(deg)": 149.99285916462438,
        "Satellite Name": "Test1 666",
        "Satellite Number": 666,
        "Semi-Major Axis(m)": 6980739.136638005,
        "Time(s)": 170
    },
    {
        "Altitude(m)": 611044.6416749543,
        "Argument of Periapsis(deg)": 0.001875410264393353,
        "Eccentricity": 0.0,
        "Inclination(deg)": 60.0,
        "Latitude(deg)": 54.933755449516305,
        "Longitude(deg)": 174.38181548784507,
        "Mean Anomaly(deg)": 109.34371061831294,
        "RAAN(deg)": 149.99243911548464,
        "Satellite Name": "Test1 666",
        "Satellite Number": 666,
        "Semi-Major Axis(m)": 6980739.136638005,
        "Time(s)": 180
    },
    {
        "Altitude(m)": 610974.4987268245,
        "Argument of Periapsis(deg)": 0.0019795997235263173,
        "Eccentricity": 0.0,
        "Inclination(deg)": 60.0,
        "Latitude(deg)": 54.62146376967841,
        "Longitude(deg)": 175.26628978766067,
        "Mean Anomaly(deg)": 109.9638167637748,
        "RAAN(deg)": 149.9920190663449,
        "Satellite Name": "Test1 666",
        "Satellite Number": 666,
        "Semi-Major Axis(m)": 6980739.136638005,
        "Time(s)": 190
    }
]